STARLINK-31016          
1 58548U 23192T   26068.26661358  .00002798  00000+0  10662-3 0  9999
2 58548  53.1604  64.4415 0001004  73.1301 286.9810 15.30182859125920
PHISAT 2                
1 60470U 24149C   26068.78834181  .00008925  00000+0  31421-3 0  9996
2 60470  97.3806 148.6498 0001175 168.6230 191.5037 15.29548631 86792
